[{"OBJECT_NAME":"FLOCK 4H-33","OBJECT_ID":"2025-276BY","EPOCH":"2026-03-09T18:09:06.535296","MEAN_MOTION":15.19689011,"ECCENTRICITY":9.559e-5,"INCLINATION":97.4288,"RA_OF_ASC_NODE":144.1705,"ARG_OF_PERICENTER":288.4074,"MEAN_ANOMALY":71.7057,"EPHEMERIS_TYPE":0,"CLASSIFICATION_TYPE":"U","NORAD_CAT_ID":66736,"ELEMENT_SET_NO":999,"REV_AT_EPOCH":1533,"BSTAR":0.00040674179,"MEAN_MOTION_DOT":8.618e-5,"MEAN_MOTION_DDOT":0},{"OBJECT_NAME":"STARLINK-35892","OBJECT_ID":"2025-299P","EPOCH":"2026-03-09T22:00:01.999584","MEAN_MOTION":15.36716354,"ECCENTRICITY":0.00012105,"INCLINATION":43.0012,"RA_OF_ASC_NODE":167.5797,"ARG_OF_PERICENTER":270.1042,"MEAN_ANOMALY":50.5728,"EPHEMERIS_TYPE":0,"CLASSIFICATION_TYPE":"U","NORAD_CAT_ID":67115,"ELEMENT_SET_NO":999,"REV_AT_EPOCH":569,"BSTAR":-0.062767387,"MEAN_MOTION_DOT":-0.02076305,"MEAN_MOTION_DDOT":0}]
